OBJECT_NAME,OBJECT_ID,EPOCH,MEAN_MOTION,ECCENTRICITY,INCLINATION,RA_OF_ASC_NODE,ARG_OF_PERICENTER,MEAN_ANOMALY,EPHEMERIS_TYPE,CLASSIFICATION_TYPE,NORAD_CAT_ID,ELEMENT_SET_NO,REV_AT_EPOCH,BSTAR,MEAN_MOTION_DOT,MEAN_MOTION_DDOT
QZS-3 (MICHIBIKI-3),2017-048A,2026-07-14T19:09:12.168864,1.00272287,.0002512,0.0661,214.9096,271.6269,220.4562,0,U,42917,999,3253,0,-.356E-5,0
AMAZONAS 5,2017-053A,2026-07-14T01:08:59.868096,1.00268891,.00010296,0.0321,328.7293,114.1312,165.2908,0,U,42934,999,3231,0,-.288E-5,0
ASIASAT 9,2017-057A,2026-07-14T19:07:49.801152,1.00270167,.0002374,0.0170,35.8626,70.5094,235.3465,0,U,42942,999,3213,0,-.368E-5,0
INTELSAT 37E (IS-37E),2017-059A,2026-07-14T18:27:54.412992,1.00269764,.0002573,0.0179,40.8260,82.7055,68.0542,0,U,42950,999,3234,0,-.15E-5,0
BSAT-4A,2017-059B,2026-07-13T12:16:30.855936,1.00272286,.00033938,0.0357,21.9752,56.7278,146.6395,0,U,42951,999,3206,0,-.354E-5,0
QZS-4 (MICHIBIKI-4),2017-062A,2026-07-12T17:38:03.472224,1.00290649,.07474587,40.0933,343.1604,268.5188,82.4158,0,U,42965,999,3205,0,-.331E-5,0
SES-11 (ECHOSTAR 105),2017-063A,2026-07-14T16:20:21.627168,1.00271006,.0002643,0.0391,296.8803,166.0892,329.7020,0,U,42967,999,3199,0,-.97E-6,0
KOREASAT 5A,2017-067A,2026-07-14T19:05:20.038848,1.00270030,.0000725,0.0125,50.4157,71.4895,210.2240,0,U,42984,999,3180,0,-.366E-5,0
ALCOMSAT 1,2017-078A,2026-07-14T18:25:54.603840,1.00268758,.0002205,0.0535,263.8105,206.5010,73.9738,0,U,43039,999,3157,0,-.195E-5,0
SBIRS GEO-3 (USA 282),2018-009A,2026-07-14T05:48:57.249792,1.00271888,.00017107,2.2038,13.3520,99.8132,106.7887,0,U,43162,999,3111,0,.121E-5,0
AL YAH 3,2018-012A,2026-07-14T18:27:16.974144,1.00270712,.0003519,1.6209,82.7712,30.1866,76.3761,0,U,43174,999,3112,0,-.165E-5,0
SES-14,2018-012B,2026-07-14T04:38:13.862400,1.00270728,.0000801,0.0126,28.6879,93.5684,191.8510,0,U,43175,999,729,0,-.285E-5,0
GOES 17,2018-022A,2026-07-14T19:50:08.246112,1.00271097,.0000536,1.0058,85.2619,82.3130,333.1466,0,U,43226,999,3070,0,-.192E-5,0
HISPASAT 30W-6,2018-023A,2026-07-14T03:00:32.972832,1.00270644,.00051302,0.0444,50.2849,39.9946,216.8713,0,U,43228,999,3067,0,-.222E-5,0
SUPERBIRD-B3,2018-033A,2026-07-14T19:19:03.723744,1.00270687,.0001005,0.0167,41.9517,85.4229,257.0572,0,U,43271,999,3033,0,-.101E-5,0
HYLAS 4,2018-033B,2026-07-14T06:24:53.803296,1.00273252,.00009517,0.0212,297.9158,192.8371,224.1076,0,U,43272,999,3033,0,-.24E-5,0
IRNSS-1I,2018-035A,2026-07-14T18:09:38.632896,1.00277502,.0018228,28.8169,73.7659,177.7601,8.6215,0,U,43286,999,3035,0,.54E-6,0
USA 283,2018-036A,2026-07-13T12:26:22.439328,1.00270146,.000101,0.0181,51.7317,164.1991,36.1561,0,U,43339,999,2555,0,0,0
COSMOS 2526,2018-037A,2026-07-14T19:09:34.633728,1.00268388,.000082,0.0351,105.7610,158.0703,84.2619,0,U,43432,999,3023,0,-.353E-5,0
APSTAR-6C,2018-041A,2026-07-14T16:13:15.007296,1.00273807,.0000779,0.0593,289.3735,296.5328,83.9303,0,U,43450,999,3008,0,-.326E-5,0
BANGABANDHUSAT-1,2018-044A,2026-07-14T19:06:57.384000,1.00270261,.0001679,0.0223,95.0096,31.1401,212.3329,0,U,43463,999,2998,0,-.371E-5,0
SES-12,2018-049A,2026-07-14T20:41:38.666112,1.00269482,.0000821,0.0111,13.3690,239.7466,85.0072,0,U,43488,999,2969,0,-.278E-5,0
FENGYUN 2H,2018-050A,2026-07-14T18:55:35.973984,1.00267176,.0002307,3.0993,78.7420,134.0717,82.8696,0,U,43491,999,2971,0,-.137E-5,0
BEIDOU-2 IGSO-7,2018-057A,2026-07-01T21:23:21.693984,1.00246939,.01049468,55.1981,162.9292,237.8611,308.6338,0,U,43539,999,2927,0,-.33E-6,0
TELSTAR 19V,2018-059A,2026-07-14T18:15:03.146112,1.00272438,.0002642,0.0283,145.1875,341.1065,17.0859,0,U,43562,999,2942,0,-.288E-5,0
TELKOM 4 (MERAH PUTIH),2018-064A,2026-07-14T07:05:12.439104,1.00269319,.0000994,0.0219,81.5910,39.4509,25.4085,0,U,43587,999,2915,0,-.351E-5,0
TELSTAR 18V,2018-069A,2026-07-13T12:29:20.367168,1.00269998,.00016639,0.0151,318.0250,158.6111,140.0899,0,U,43611,999,2890,0,-.298E-5,0
AZERSPACE 2 (IS-38),2018-074A,2026-07-14T20:37:07.300992,1.00270157,.0001294,0.0269,55.5887,67.9093,163.6155,0,U,43632,999,2872,0,0,0
HORIZONS-3E,2018-074B,2026-07-13T15:21:38.465856,1.00270118,.00009408,0.0498,224.9289,53.6947,52.2963,0,U,43633,999,2860,0,-.35E-6,0
AEHF-4 (USA 288),2018-079A,2026-07-14T13:05:53.695104,1.00276502,.0058546,1.4397,6.2484,353.9401,61.1242,0,U,43651,999,2857,0,-.283E-5,0
BEIDOU-3 G1,2018-085A,2026-07-14T19:18:33.772320,1.00272514,.0008003,2.9354,96.6255,356.2807,289.3566,0,U,43683,999,2833,0,-.12E-5,0
GSAT-29,2018-089A,2026-07-14T20:50:35.242944,1.00275871,.0002955,0.0565,246.2149,199.3608,214.9248,0,U,43698,999,2806,0,.75E-6,0
