QZS-3 (MICHIBIKI-3)     
1 42917U 17048A   26195.79805751 -.00000356  00000+0  00000+0 0  9991
2 42917   0.0661 214.9096 0002512 271.6269 220.4562  1.00272287 32535
AMAZONAS 5              
1 42934U 17053A   26195.04791514 -.00000288  00000+0  00000+0 0  9999
2 42934   0.0321 328.7293 0001029 114.1312 165.2908  1.00268891 32314
ASIASAT 9               
1 42942U 17057A   26195.79710418 -.00000368  00000+0  00000+0 0  9997
2 42942   0.0170  35.8626 0002374  70.5094 235.3465  1.00270167 32133
INTELSAT 37E (IS-37E)   
1 42950U 17059A   26195.76937978 -.00000150  00000+0  00000+0 0  9996
2 42950   0.0179  40.8260 0002573  82.7055  68.0542  1.00269764 32345
BSAT-4A                 
1 42951U 17059B   26194.51146824 -.00000354  00000+0  00000+0 0  9997
2 42951   0.0357  21.9752 0003393  56.7278 146.6395  1.00272286 32060
QZS-4 (MICHIBIKI-4)     
1 42965U 17062A   26193.73476241 -.00000331  00000+0  00000+0 0  9993
2 42965  40.0933 343.1604 0747458 268.5188  82.4158  1.00290649 32050
SES-11 (ECHOSTAR 105)   
1 42967U 17063A   26195.68080587 -.00000097  00000+0  00000+0 0  9995
2 42967   0.0391 296.8803 0002643 166.0892 329.7020  1.00271006 31998
KOREASAT 5A             
1 42984U 17067A   26195.79537082 -.00000366  00000+0  00000+0 0  9996
2 42984   0.0125  50.4157 0000725  71.4895 210.2240  1.00270030 31803
ALCOMSAT 1              
1 43039U 17078A   26195.76799310 -.00000195  00000+0  00000+0 0  9991
2 43039   0.0535 263.8105 0002205 206.5010  73.9738  1.00268758 31572
SBIRS GEO-3 (USA 282)   
1 43162U 18009A   26195.24232928  .00000121  00000+0  00000+0 0  9991
2 43162   2.2038  13.3520 0001710  99.8132 106.7887  1.00271888 31116
AL YAH 3                
1 43174U 18012A   26195.76894646 -.00000165  00000+0  00000+0 0  9995
2 43174   1.6209  82.7712 0003519  30.1866  76.3761  1.00270712 31125
SES-14                  
1 43175U 18012B   26195.19321600 -.00000285  00000+0  00000+0 0  9991
2 43175   0.0126  28.6879 0000801  93.5684 191.8510  1.00270728  7295
GOES 17                 
1 43226U 18022A   26195.82648433 -.00000192  00000+0  00000+0 0  9992
2 43226   1.0058  85.2619 0000536  82.3130 333.1466  1.00271097 30708
HISPASAT 30W-6          
1 43228U 18023A   26195.12538163 -.00000222  00000+0  00000+0 0  9990
2 43228   0.0444  50.2849 0005130  39.9946 216.8713  1.00270644 30678
SUPERBIRD-B3            
1 43271U 18033A   26195.80490421 -.00000101  00000+0  00000+0 0  9994
2 43271   0.0167  41.9517 0001005  85.4229 257.0572  1.00270687 30334
HYLAS 4                 
1 43272U 18033B   26195.26728939 -.00000240  00000+0  00000+0 0  9997
2 43272   0.0212 297.9158 0000951 192.8371 224.1076  1.00273252 30335
IRNSS-1I                
1 43286U 18035A   26195.75669714  .00000054  00000+0  00000+0 0  9995
2 43286  28.8169  73.7659 0018228 177.7601   8.6215  1.00277502 30353
USA 283                 
1 43339U 18036A   26194.51831527  .00000000  00000+0  00000+0 0  9992
2 43339   0.0181  51.7317 0001010 164.1991  36.1561  1.00270146 25551
COSMOS 2526             
1 43432U 18037A   26195.79831752 -.00000353  00000+0  00000+0 0  9990
2 43432   0.0351 105.7610 0000820 158.0703  84.2619  1.00268388 30235
APSTAR-6C               
1 43450U 18041A   26195.67586814 -.00000326  00000+0  00000+0 0  9998
2 43450   0.0593 289.3735 0000779 296.5328  83.9303  1.00273807 30085
BANGABANDHUSAT-1        
1 43463U 18044A   26195.79649750 -.00000371  00000+0  00000+0 0  9997
2 43463   0.0223  95.0096 0001679  31.1401 212.3329  1.00270261 29980
SES-12                  
1 43488U 18049A   26195.86225308 -.00000278  00000+0  00000+0 0  9992
2 43488   0.0111  13.3690 0000821 239.7466  85.0072  1.00269482 29692
FENGYUN 2H              
1 43491U 18050A   26195.78861081 -.00000137  00000+0  00000+0 0  9997
2 43491   3.0993  78.7420 0002307 134.0717  82.8696  1.00267176 29718
BEIDOU-2 IGSO-7         
1 43539U 18057A   26182.89122331 -.00000033  00000+0  00000+0 0  9998
2 43539  55.1981 162.9292 0104946 237.8611 308.6338  1.00246939 29273
TELSTAR 19V             
1 43562U 18059A   26195.76045308 -.00000288  00000+0  00000+0 0  9996
2 43562   0.0283 145.1875 0002642 341.1065  17.0859  1.00272438 29424
TELKOM 4 (MERAH PUTIH)  
1 43587U 18064A   26195.29528286 -.00000351  00000+0  00000+0 0  9999
2 43587   0.0219  81.5910 0000994  39.4509  25.4085  1.00269319 29159
TELSTAR 18V             
1 43611U 18069A   26194.52037462 -.00000298  00000+0  00000+0 0  9998
2 43611   0.0151 318.0250 0001663 158.6111 140.0899  1.00269998 28906
AZERSPACE 2 (IS-38)     
1 43632U 18074A   26195.85911228  .00000000  00000+0  00000+0 0  9995
2 43632   0.0269  55.5887 0001294  67.9093 163.6155  1.00270157 28724
HORIZONS-3E             
1 43633U 18074B   26194.64002854 -.00000035  00000+0  00000+0 0  9997
2 43633   0.0498 224.9289 0000940  53.6947  52.2963  1.00270118 28608
AEHF-4 (USA 288)        
1 43651U 18079A   26195.54576036 -.00000283  00000+0  00000+0 0  9995
2 43651   1.4397   6.2484 0058546 353.9401  61.1242  1.00276502 28573
BEIDOU-3 G1             
1 43683U 18085A   26195.80455755 -.00000120  00000+0  00000+0 0  9990
2 43683   2.9354  96.6255 0008003 356.2807 289.3566  1.00272514 28331
GSAT-29                 
1 43698U 18089A   26195.86846346  .00000075  00000+0  00000+0 0  9994
2 43698   0.0565 246.2149 0002955 199.3608 214.9248  1.00275871 28060
